{
  "type": "FeatureCollection",
  "features": [
    {
      "type": "Feature",
      "properties": {
        "norad_id": 40730,
        "name": "GPS BIIF-10 (PRN 08)",
        "group": "gps-ops",
        "lat": 22.136288057928475,
        "lon": 77.98357988738792,
        "alt_km": 20348.340702055837,
        "timestamp": "2025-12-04T23:34:05.981532+00:00",
        "meta_object_name": "GPS BIIF-10 (PRN 08)",
        "meta_object_id": "2015-033A",
        "meta_epoch": "2025-12-04T06:35:41.435232",
        "meta_mean_motion": 2.00565814,
        "meta_eccentricity": 0.0110441,
        "meta_inclination": 54.1382,
        "meta_ra_of_asc_node": 275.1212,
        "meta_arg_of_pericenter": 26.6009,
        "meta_mean_anomaly": 333.963,
        "meta_ephemeris_type": 0,
        "meta_classification_type": "U",
        "meta_norad_cat_id": 40730,
        "meta_element_set_no": 999,
        "meta_rev_at_epoch": 7608,
        "meta_bstar": 0,
        "meta_mean_motion_dot": -3.2e-07,
        "meta_mean_motion_ddot": 0,
        "tle_line1": "1 40730U 15033A   25338.27478513 -.00000032  00000+0  00000+0 0  9998",
        "tle_line2": "2 40730  54.1382 275.1212 0110441  26.6009 333.9630  2.00565814 76082"
      },
      "geometry": {
        "type": "Point",
        "coordinates": [
          77.98357988738792,
          22.136288057928475
        ]
      }
    },
    {
      "type": "Feature",
      "properties": {
        "norad_id": 41019,
        "name": "GPS BIIF-11 (PRN 10)",
        "group": "gps-ops",
        "lat": 53.661510332285715,
        "lon": 155.66369832137798,
        "alt_km": 20337.566512503057,
        "timestamp": "2025-12-04T23:34:05.981544+00:00",
        "meta_object_name": "GPS BIIF-11 (PRN 10)",
        "meta_object_id": "2015-062A",
        "meta_epoch": "2025-12-03T20:03:13.853664",
        "meta_mean_motion": 2.0056693,
        "meta_eccentricity": 0.0110571,
        "meta_inclination": 56.8259,
        "meta_ra_of_asc_node": 38.3468,
        "meta_arg_of_pericenter": 229.69,
        "meta_mean_anomaly": 129.3913,
        "meta_ephemeris_type": 0,
        "meta_classification_type": "U",
        "meta_norad_cat_id": 41019,
        "meta_element_set_no": 999,
        "meta_rev_at_epoch": 7391,
        "meta_bstar": 0,
        "meta_mean_motion_dot": -6.5e-07,
        "meta_mean_motion_ddot": 0,
        "tle_line1": "1 41019U 15062A   25337.83557701 -.00000065  00000+0  00000+0 0  9995",
        "tle_line2": "2 41019  56.8259  38.3468 0110571 229.6900 129.3913  2.00566930 73916"
      },
      "geometry": {
        "type": "Point",
        "coordinates": [
          155.66369832137798,
          53.661510332285715
        ]
      }
    },
    {
      "type": "Feature",
      "properties": {
        "norad_id": 41328,
        "name": "GPS BIIF-12 (PRN 32)",
        "group": "gps-ops",
        "lat": 37.51543653355306,
        "lon": 129.11864708112614,
        "alt_km": 20412.058881232257,
        "timestamp": "2025-12-04T23:34:05.981556+00:00",
        "meta_object_name": "GPS BIIF-12 (PRN 32)",
        "meta_object_id": "2016-007A",
        "meta_epoch": "2025-12-03T22:01:44.177088",
        "meta_mean_motion": 2.00561076,
        "meta_eccentricity": 0.0091739,
        "meta_inclination": 55.4011,
        "meta_ra_of_asc_node": 97.2072,
        "meta_arg_of_pericenter": 243.359,
        "meta_mean_anomaly": 115.6713,
        "meta_ephemeris_type": 0,
        "meta_classification_type": "U",
        "meta_norad_cat_id": 41328,
        "meta_element_set_no": 999,
        "meta_rev_at_epoch": 7192,
        "meta_bstar": 0,
        "meta_mean_motion_dot": -7e-08,
        "meta_mean_motion_ddot": 0,
        "tle_line1": "1 41328U 16007A   25337.91787242 -.00000007  00000+0  00000+0 0  9998",
        "tle_line2": "2 41328  55.4011  97.2072 0091739 243.3590 115.6713  2.00561076 71928"
      },
      "geometry": {
        "type": "Point",
        "coordinates": [
          129.11864708112614,
          37.51543653355306
        ]
      }
    },
    {
      "type": "Feature",
      "properties": {
        "norad_id": 43873,
        "name": "GPS BIII-1  (PRN 04)",
        "group": "gps-ops",
        "lat": -43.9687843193667,
        "lon": 58.44563883325354,
        "alt_km": 20218.677556459555,
        "timestamp": "2025-12-04T23:34:05.981567+00:00",
        "meta_object_name": "GPS BIII-1  (PRN 04)",
        "meta_object_id": "2018-109A",
        "meta_epoch": "2025-12-04T13:52:59.167776",
        "meta_mean_motion": 2.00553165,
        "meta_eccentricity": 0.0037177,
        "meta_inclination": 55.5628,
        "meta_ra_of_asc_node": 99.8692,
        "meta_arg_of_pericenter": 194.6577,
        "meta_mean_anomaly": 176.2017,
        "meta_ephemeris_type": 0,
        "meta_classification_type": "U",
        "meta_norad_cat_id": 43873,
        "meta_element_set_no": 999,
        "meta_rev_at_epoch": 5117,
        "meta_bstar": 0,
        "meta_mean_motion_dot": -5e-08,
        "meta_mean_motion_ddot": 0,
        "tle_line1": "1 43873U 18109A   25338.57846259 -.00000005  00000+0  00000+0 0  9995",
        "tle_line2": "2 43873  55.5628  99.8692 0037177 194.6577 176.2017  2.00553165 51170"
      },
      "geometry": {
        "type": "Point",
        "coordinates": [
          58.44563883325354,
          -43.9687843193667
        ]
      }
    },
    {
      "type": "Feature",
      "properties": {
        "norad_id": 44506,
        "name": "GPS BIII-2  (PRN 18)",
        "group": "gps-ops",
        "lat": -15.52890431339306,
        "lon": 169.7829587365796,
        "alt_km": 20031.007867276996,
        "timestamp": "2025-12-04T23:34:05.981579+00:00",
        "meta_object_name": "GPS BIII-2  (PRN 18)",
        "meta_object_id": "2019-056A",
        "meta_epoch": "2025-12-02T10:49:28.764768",
        "meta_mean_motion": 2.00565569,
        "meta_eccentricity": 0.00578163,
        "meta_inclination": 55.7251,
        "meta_ra_of_asc_node": 338.9617,
        "meta_arg_of_pericenter": 198.402,
        "meta_mean_anomaly": 332.9603,
        "meta_ephemeris_type": 0,
        "meta_classification_type": "U",
        "meta_norad_cat_id": 44506,
        "meta_element_set_no": 999,
        "meta_rev_at_epoch": 4612,
        "meta_bstar": 0,
        "meta_mean_motion_dot": -6.1e-07,
        "meta_mean_motion_ddot": 0,
        "tle_line1": "1 44506U 19056A   25336.45102737 -.00000061  00000+0  00000+0 0  9994",
        "tle_line2": "2 44506  55.7251 338.9617 0057816 198.4020 332.9603  2.00565569 46121"
      },
      "geometry": {
        "type": "Point",
        "coordinates": [
          169.7829587365796,
          -15.52890431339306
        ]
      }
    },
    {
      "type": "Feature",
      "properties": {
        "norad_id": 45854,
        "name": "GPS BIII-3  (PRN 23)",
        "group": "gps-ops",
        "lat": 30.553095635625393,
        "lon": -166.44314230403407,
        "alt_km": 20099.451039723263,
        "timestamp": "2025-12-04T23:34:05.981590+00:00",
        "meta_object_name": "GPS BIII-3  (PRN 23)",
        "meta_object_id": "2020-041A",
        "meta_epoch": "2025-12-03T06:48:38.769120",
        "meta_mean_motion": 2.00561684,
        "meta_eccentricity": 0.0060262,
        "meta_inclination": 56.5402,
        "meta_ra_of_asc_node": 36.5545,
        "meta_arg_of_pericenter": 203.0015,
        "meta_mean_anomaly": 153.8862,
        "meta_ephemeris_type": 0,
        "meta_classification_type": "U",
        "meta_norad_cat_id": 45854,
        "meta_element_set_no": 999,
        "meta_rev_at_epoch": 4010,
        "meta_bstar": 0,
        "meta_mean_motion_dot": -6.6e-07,
        "meta_mean_motion_ddot": 0,
        "tle_line1": "1 45854U 20041A   25337.28378205 -.00000066  00000+0  00000+0 0  9999",
        "tle_line2": "2 45854  56.5402  36.5545 0060262 203.0015 153.8862  2.00561684 40105"
      },
      "geometry": {
        "type": "Point",
        "coordinates": [
          -166.44314230403407,
          30.553095635625393
        ]
      }
    },
    {
      "type": "Feature",
      "properties": {
        "norad_id": 46826,
        "name": "GPS BIII-4  (PRN 14)",
        "group": "gps-ops",
        "lat": 48.12839910512476,
        "lon": -15.413481514760864,
        "alt_km": 20178.22790334025,
        "timestamp": "2025-12-04T23:34:05.981601+00:00",
        "meta_object_name": "GPS BIII-4  (PRN 14)",
        "meta_object_id": "2020-078A",
        "meta_epoch": "2025-11-12T03:01:29.190720",
        "meta_mean_motion": 2.00567032,
        "meta_eccentricity": 0.0063911,
        "meta_inclination": 54.0223,
        "meta_ra_of_asc_node": 219.5836,
        "meta_arg_of_pericenter": 203.4986,
        "meta_mean_anomaly": 326.7754,
        "meta_ephemeris_type": 0,
        "meta_classification_type": "U",
        "meta_norad_cat_id": 46826,
        "meta_element_set_no": 999,
        "meta_rev_at_epoch": 3715,
        "meta_bstar": 0,
        "meta_mean_motion_dot": -3.4e-07,
        "meta_mean_motion_ddot": 0,
        "tle_line1": "1 46826U 20078A   25316.12603230 -.00000034  00000+0  00000+0 0  9993",
        "tle_line2": "2 46826  54.0223 219.5836 0063911 203.4986 326.7754  2.00567032 37155"
      },
      "geometry": {
        "type": "Point",
        "coordinates": [
          -15.413481514760864,
          48.12839910512476
        ]
      }
    }
  ]
}